<?xml version="1.0" encoding="UTF-8"?>
<gpx xmlns="http://www.topografix.com/GPX/1/1" xmlns:gpxtpx="http://www.garmin.com/xmlschemas/TrackPointExtension/v1" xmlns:xsi="http://www.w3.org/2001/XMLSchema-instance" xsi:schemaLocation="http://www.topografix.com/GPX/1/1 http://www.topografix.com/GPX/1/1/gpx.xsd" version="1.1" creator="gpx.py -- https://github.com/tkrajina/gpxpy">
  <trk>
    <name>gpx from keep</name>
    <type>Walk</type>
    <trkseg>
      <trkpt lat="34.21051611287066" lon="108.88562863301263">
        <ele>414.19746895413846</ele>
        <time>2025-12-06T04:56:49Z</time>
      </trkpt>
      <trkpt lat="34.2105152485975" lon="108.8856438051349">
        <ele>414.20245747920126</ele>
        <time>2025-12-06T04:56:49.900000Z</time>
      </trkpt>
      <trkpt lat="34.21051445563472" lon="108.88565902632418">
        <ele>414.2074601864442</ele>
        <time>2025-12-06T04:56:50.900000Z</time>
      </trkpt>
      <trkpt lat="34.21051376436021" lon="108.88567431951907">
        <ele>414.21245150920004</ele>
        <time>2025-12-06T04:56:51.900000Z</time>
      </trkpt>
      <trkpt lat="34.210513199241944" lon="108.88568970362807">
        <ele>414.21737607661635</ele>
        <time>2025-12-06T04:56:52.900000Z</time>
      </trkpt>
      <trkpt lat="34.21051278113041" lon="108.88570519648532">
        <ele>414.22215701825917</ele>
        <time>2025-12-06T04:56:53.900000Z</time>
      </trkpt>
      <trkpt lat="34.21051252459593" lon="108.88572080973766">
        <ele>414.2267282065004</ele>
        <time>2025-12-06T04:56:54.900000Z</time>
      </trkpt>
      <trkpt lat="34.2105124637771" lon="108.88573634055409">
        <ele>414.23106663674116</ele>
        <time>2025-12-06T04:56:55.900000Z</time>
      </trkpt>
      <trkpt lat="34.21051262648232" lon="108.88575158601071">
        <ele>414.2352114347741</ele>
        <time>2025-12-06T04:56:56.900000Z</time>
      </trkpt>
      <trkpt lat="34.21051299530875" lon="108.88576632889945">
        <ele>414.2392762983218</ele>
        <time>2025-12-06T04:56:57.900000Z</time>
      </trkpt>
      <trkpt lat="34.210513546356616" lon="108.88578035704755">
        <ele>414.2434445042163</ele>
        <time>2025-12-06T04:56:58.900000Z</time>
      </trkpt>
      <trkpt lat="34.21051426234797" lon="108.88579369017533">
        <ele>414.2479060878977</ele>
        <time>2025-12-06T04:56:59.900000Z</time>
      </trkpt>
      <trkpt lat="34.210515123870586" lon="108.8858063520558">
        <ele>414.25279288273305</ele>
        <time>2025-12-06T04:57:00.900000Z</time>
      </trkpt>
      <trkpt lat="34.210516109012026" lon="108.88581836837068">
        <ele>414.25819701328874</ele>
        <time>2025-12-06T04:57:01.900000Z</time>
      </trkpt>
      <trkpt lat="34.21051719695797" lon="108.88582976434955">
        <ele>414.2642015805468</ele>
        <time>2025-12-06T04:57:02.900000Z</time>
      </trkpt>
      <trkpt lat="34.21051836427866" lon="108.88584056325858">
        <ele>414.27088162396103</ele>
        <time>2025-12-06T04:57:03.900000Z</time>
      </trkpt>
      <trkpt lat="34.210519581421046" lon="108.8858507879214">
        <ele>414.27830666769296</ele>
        <time>2025-12-06T04:57:04.900000Z</time>
      </trkpt>
      <trkpt lat="34.210520820831874" lon="108.8858604652637">
        <ele>414.2865436533466</ele>
        <time>2025-12-06T04:57:05.900000Z</time>
      </trkpt>
      <trkpt lat="34.21052206816676" lon="108.88586965993385">
        <ele>414.29565751738846</ele>
        <time>2025-12-06T04:57:06.900000Z</time>
      </trkpt>
      <trkpt lat="34.210523319649795" lon="108.88587845878999">
        <ele>414.30571038648486</ele>
        <time>2025-12-06T04:57:07.900000Z</time>
      </trkpt>
      <trkpt lat="34.21052456976113" lon="108.88588692425667">
        <ele>414.316761164926</ele>
        <time>2025-12-06T04:57:08.900000Z</time>
      </trkpt>
      <trkpt lat="34.21052581401698" lon="108.88589511225842">
        <ele>414.32886500656605</ele>
        <time>2025-12-06T04:57:09.900000Z</time>
      </trkpt>
      <trkpt lat="34.21052704892261" lon="108.88590307270223">
        <ele>414.3420726656914</ele>
        <time>2025-12-06T04:57:10.900000Z</time>
      </trkpt>
      <trkpt lat="34.21052827031201" lon="108.88591084011382">
        <ele>414.35643000807613</ele>
        <time>2025-12-06T04:57:11.900000Z</time>
      </trkpt>
      <trkpt lat="34.210529474775846" lon="108.88591844428406">
        <ele>414.3719745883718</ele>
        <time>2025-12-06T04:57:12.900000Z</time>
      </trkpt>
      <trkpt lat="34.21053065993749" lon="108.88592591244276">
        <ele>414.3887283867225</ele>
        <time>2025-12-06T04:57:13.900000Z</time>
      </trkpt>
      <trkpt lat="34.21053182429354" lon="108.88593326865147">
        <ele>414.4066798919812</ele>
        <time>2025-12-06T04:57:14.900000Z</time>
      </trkpt>
      <trkpt lat="34.210532964558915" lon="108.88594052838755">
        <ele>414.4257622687146</ele>
        <time>2025-12-06T04:57:15.900000Z</time>
      </trkpt>
      <trkpt lat="34.210534076893595" lon="108.88594770216665">
        <ele>414.44584674574435</ele>
        <time>2025-12-06T04:57:16.900000Z</time>
      </trkpt>
      <trkpt lat="34.21053516169067" lon="108.88595480649684">
        <ele>414.46674518752843</ele>
        <time>2025-12-06T04:57:17.900000Z</time>
      </trkpt>
      <trkpt lat="34.21053630474422" lon="108.88596241634588">
        <ele>414.4899340113625</ele>
        <time>2025-12-06T04:57:19Z</time>
      </trkpt>
      <trkpt lat="34.21053734158857" lon="108.88596942251922">
        <ele>414.51153759565204</ele>
        <time>2025-12-06T04:57:20Z</time>
      </trkpt>
      <trkpt lat="34.21053834708089" lon="108.88597629280646">
        <ele>414.5323603125289</ele>
        <time>2025-12-06T04:57:21Z</time>
      </trkpt>
      <trkpt lat="34.21054223585927" lon="108.88600419460144">
        <ele>414.60252219904214</ele>
        <time>2025-12-06T04:57:25Z</time>
      </trkpt>
    </trkseg>
  </trk>
</gpx>