<?xml version="1.0" encoding="UTF-8"?>
<gpx xmlns="http://www.topografix.com/GPX/1/1" xmlns:gpxtpx="http://www.garmin.com/xmlschemas/TrackPointExtension/v1" xmlns:xsi="http://www.w3.org/2001/XMLSchema-instance" xsi:schemaLocation="http://www.topografix.com/GPX/1/1 http://www.topografix.com/GPX/1/1/gpx.xsd" version="1.1" creator="gpx.py -- https://github.com/tkrajina/gpxpy">
  <trk>
    <name>gpx from keep</name>
    <type>Walk</type>
    <trkseg>
      <trkpt lat="34.21897127437133" lon="108.83129441710427">
        <ele>403.88461696356535</ele>
        <time>2025-12-22T04:41:19Z</time>
      </trkpt>
      <trkpt lat="34.21898182265483" lon="108.83129033469488">
        <ele>403.7658059038222</ele>
        <time>2025-12-22T04:41:19.900000Z</time>
      </trkpt>
      <trkpt lat="34.21899470815547" lon="108.83128682905827">
        <ele>403.6696566566825</ele>
        <time>2025-12-22T04:41:20.900000Z</time>
      </trkpt>
      <trkpt lat="34.21900834679711" lon="108.83128409205187">
        <ele>403.59125691093504</ele>
        <time>2025-12-22T04:41:21.900000Z</time>
      </trkpt>
      <trkpt lat="34.219022168829255" lon="108.83128029445771">
        <ele>403.5228800950572</ele>
        <time>2025-12-22T04:41:22.900000Z</time>
      </trkpt>
      <trkpt lat="34.21903596355795" lon="108.83127489995489">
        <ele>403.4742803471163</ele>
        <time>2025-12-22T04:41:23.900000Z</time>
      </trkpt>
      <trkpt lat="34.21904955737902" lon="108.83126823950465">
        <ele>403.4489722177386</ele>
        <time>2025-12-22T04:41:24.900000Z</time>
      </trkpt>
      <trkpt lat="34.21906368134852" lon="108.83126101316337">
        <ele>403.43694538995624</ele>
        <time>2025-12-22T04:41:25.900000Z</time>
      </trkpt>
      <trkpt lat="34.21907757231774" lon="108.83125394431757">
        <ele>403.4546654596925</ele>
        <time>2025-12-22T04:41:26.900000Z</time>
      </trkpt>
      <trkpt lat="34.21909040392276" lon="108.83124581850994">
        <ele>403.48943878058344</ele>
        <time>2025-12-22T04:41:27.900000Z</time>
      </trkpt>
      <trkpt lat="34.2191031504112" lon="108.8312362384123">
        <ele>403.5301589537412</ele>
        <time>2025-12-22T04:41:28.900000Z</time>
      </trkpt>
      <trkpt lat="34.21911670920234" lon="108.83122590050252">
        <ele>403.5838859062642</ele>
        <time>2025-12-22T04:41:29.900000Z</time>
      </trkpt>
      <trkpt lat="34.21912992471574" lon="108.8312157098981">
        <ele>403.6380909383297</ele>
        <time>2025-12-22T04:41:30.900000Z</time>
      </trkpt>
      <trkpt lat="34.21914246783204" lon="108.83120625582843">
        <ele>403.6958899497986</ele>
        <time>2025-12-22T04:41:31.900000Z</time>
      </trkpt>
      <trkpt lat="34.21915473484937" lon="108.83119743026802">
        <ele>403.76204168982804</ele>
        <time>2025-12-22T04:41:32.900000Z</time>
      </trkpt>
      <trkpt lat="34.2191664078295" lon="108.83118936085366">
        <ele>403.814236109145</ele>
        <time>2025-12-22T04:41:33.900000Z</time>
      </trkpt>
      <trkpt lat="34.21917850676284" lon="108.83118141531656">
        <ele>403.865903256461</ele>
        <time>2025-12-22T04:41:34.900000Z</time>
      </trkpt>
      <trkpt lat="34.21919087329227" lon="108.83117369106016">
        <ele>403.92213199846447</ele>
        <time>2025-12-22T04:41:35.900000Z</time>
      </trkpt>
      <trkpt lat="34.21920294770511" lon="108.83116585052835">
        <ele>403.9611239815131</ele>
        <time>2025-12-22T04:41:36.900000Z</time>
      </trkpt>
      <trkpt lat="34.219214716255046" lon="108.83115778146605">
        <ele>403.97044087946415</ele>
        <time>2025-12-22T04:41:37.900000Z</time>
      </trkpt>
      <trkpt lat="34.21922666886147" lon="108.83115002399346">
        <ele>403.95724456664175</ele>
        <time>2025-12-22T04:41:38.900000Z</time>
      </trkpt>
      <trkpt lat="34.219238874012106" lon="108.83114247236101">
        <ele>403.954513868317</ele>
        <time>2025-12-22T04:41:39.900000Z</time>
      </trkpt>
      <trkpt lat="34.21925113118375" lon="108.83113473111172">
        <ele>403.9457523506135</ele>
        <time>2025-12-22T04:41:40.900000Z</time>
      </trkpt>
      <trkpt lat="34.21926300146125" lon="108.83112692207676">
        <ele>403.9341081669554</ele>
        <time>2025-12-22T04:41:41.900000Z</time>
      </trkpt>
      <trkpt lat="34.21927451786598" lon="108.83111944886817">
        <ele>403.9096215851605</ele>
        <time>2025-12-22T04:41:42.900000Z</time>
      </trkpt>
      <trkpt lat="34.21928628972002" lon="108.83111220289645">
        <ele>403.87120854482055</ele>
        <time>2025-12-22T04:41:43.900000Z</time>
      </trkpt>
      <trkpt lat="34.21929841048471" lon="108.83110506880514">
        <ele>403.8332681776956</ele>
        <time>2025-12-22T04:41:44.900000Z</time>
      </trkpt>
      <trkpt lat="34.21931016122858" lon="108.83109861501684">
        <ele>403.78117945883423</ele>
        <time>2025-12-22T04:41:45.900000Z</time>
      </trkpt>
      <trkpt lat="34.2193211881539" lon="108.83109301553341">
        <ele>403.7236272646114</ele>
        <time>2025-12-22T04:41:46.900000Z</time>
      </trkpt>
      <trkpt lat="34.21933150955352" lon="108.83108806193565">
        <ele>403.67890156432986</ele>
        <time>2025-12-22T04:41:47.900000Z</time>
      </trkpt>
      <trkpt lat="34.21934142846431" lon="108.83108362498567">
        <ele>403.63760154601187</ele>
        <time>2025-12-22T04:41:48.900000Z</time>
      </trkpt>
      <trkpt lat="34.2193514977626" lon="108.83107946214159">
        <ele>403.5910879597068</ele>
        <time>2025-12-22T04:41:49.900000Z</time>
      </trkpt>
      <trkpt lat="34.21936189940964" lon="108.83107530281522">
        <ele>403.56827105768025</ele>
        <time>2025-12-22T04:41:50.900000Z</time>
      </trkpt>
      <trkpt lat="34.219373330998394" lon="108.8310705280007">
        <ele>403.54719632770866</ele>
        <time>2025-12-22T04:41:51.900000Z</time>
      </trkpt>
      <trkpt lat="34.219386339154894" lon="108.8310647372367">
        <ele>403.5156728513539</ele>
        <time>2025-12-22T04:41:52.900000Z</time>
      </trkpt>
      <trkpt lat="34.21939975603304" lon="108.83105859103131">
        <ele>403.46577792894095</ele>
        <time>2025-12-22T04:41:53.900000Z</time>
      </trkpt>
      <trkpt lat="34.21941292038161" lon="108.83105257436942">
        <ele>403.4191093277186</ele>
        <time>2025-12-22T04:41:54.900000Z</time>
      </trkpt>
      <trkpt lat="34.219425878290004" lon="108.83104698801542">
        <ele>403.3912978824228</ele>
        <time>2025-12-22T04:41:55.900000Z</time>
      </trkpt>
      <trkpt lat="34.21943839736916" lon="108.83104207738414">
        <ele>403.37227371986955</ele>
        <time>2025-12-22T04:41:56.900000Z</time>
      </trkpt>
      <trkpt lat="34.219451151527956" lon="108.83103759572276">
        <ele>403.36438260693103</ele>
        <time>2025-12-22T04:41:57.900000Z</time>
      </trkpt>
      <trkpt lat="34.21946440193321" lon="108.83103340781697">
        <ele>403.357605015859</ele>
        <time>2025-12-22T04:41:58.900000Z</time>
      </trkpt>
      <trkpt lat="34.21947748196084" lon="108.8310293897068">
        <ele>403.35860890336335</ele>
        <time>2025-12-22T04:41:59.900000Z</time>
      </trkpt>
      <trkpt lat="34.21949016084462" lon="108.83102540308751">
        <ele>403.33872364927083</ele>
        <time>2025-12-22T04:42:00.900000Z</time>
      </trkpt>
      <trkpt lat="34.21950292887542" lon="108.83102133434767">
        <ele>403.2948762187734</ele>
        <time>2025-12-22T04:42:01.900000Z</time>
      </trkpt>
      <trkpt lat="34.21951533166828" lon="108.83101795623568">
        <ele>403.26329755969346</ele>
        <time>2025-12-22T04:42:02.900000Z</time>
      </trkpt>
      <trkpt lat="34.219526698971514" lon="108.83101557923987">
        <ele>403.2531030345708</ele>
        <time>2025-12-22T04:42:03.900000Z</time>
      </trkpt>
      <trkpt lat="34.21953717485239" lon="108.83101367281981">
        <ele>403.265645487234</ele>
        <time>2025-12-22T04:42:04.900000Z</time>
      </trkpt>
      <trkpt lat="34.219547014727816" lon="108.8310119943322">
        <ele>403.29309908952564</ele>
        <time>2025-12-22T04:42:05.900000Z</time>
      </trkpt>
      <trkpt lat="34.219556423503356" lon="108.83101066341274">
        <ele>403.32132149674</ele>
        <time>2025-12-22T04:42:06.900000Z</time>
      </trkpt>
      <trkpt lat="34.21956616836611" lon="108.8310098984431">
        <ele>403.3431283477694</ele>
        <time>2025-12-22T04:42:07.900000Z</time>
      </trkpt>
      <trkpt lat="34.21957607370162" lon="108.83100904432226">
        <ele>403.3675119243562</ele>
        <time>2025-12-22T04:42:08.900000Z</time>
      </trkpt>
      <trkpt lat="34.21958493442966" lon="108.83100713347169">
        <ele>403.39847819227725</ele>
        <time>2025-12-22T04:42:09.900000Z</time>
      </trkpt>
      <trkpt lat="34.219592863020715" lon="108.8310041425424">
        <ele>403.4657102981582</ele>
        <time>2025-12-22T04:42:10.900000Z</time>
      </trkpt>
      <trkpt lat="34.21960116066357" lon="108.83100080060193">
        <ele>403.5440883776173</ele>
        <time>2025-12-22T04:42:11.900000Z</time>
      </trkpt>
      <trkpt lat="34.21961049195507" lon="108.83099825874477">
        <ele>403.643679022789</ele>
        <time>2025-12-22T04:42:12.900000Z</time>
      </trkpt>
      <trkpt lat="34.219619620495045" lon="108.83099650239207">
        <ele>403.7375244842842</ele>
        <time>2025-12-22T04:42:13.900000Z</time>
      </trkpt>
      <trkpt lat="34.21962784793579" lon="108.8309942075656">
        <ele>403.83263876475394</ele>
        <time>2025-12-22T04:42:14.900000Z</time>
      </trkpt>
      <trkpt lat="34.21963615037123" lon="108.830990996496">
        <ele>403.9292808007449</ele>
        <time>2025-12-22T04:42:15.900000Z</time>
      </trkpt>
      <trkpt lat="34.21964476810518" lon="108.83098728164197">
        <ele>404.01580544468015</ele>
        <time>2025-12-22T04:42:16.900000Z</time>
      </trkpt>
      <trkpt lat="34.2196538029429" lon="108.83098329172047">
        <ele>404.11306717339903</ele>
        <time>2025-12-22T04:42:17.900000Z</time>
      </trkpt>
      <trkpt lat="34.21966272045013" lon="108.83097929063318">
        <ele>404.2037744279951</ele>
        <time>2025-12-22T04:42:19Z</time>
      </trkpt>
      <trkpt lat="34.21967170056544" lon="108.83097521574037">
        <ele>404.28885384090245</ele>
        <time>2025-12-22T04:42:20Z</time>
      </trkpt>
      <trkpt lat="34.21968255461151" lon="108.83097122280921">
        <ele>404.37021934986115</ele>
        <time>2025-12-22T04:42:21Z</time>
      </trkpt>
      <trkpt lat="34.219694506970185" lon="108.83096795376638">
        <ele>404.4812467042357</ele>
        <time>2025-12-22T04:42:22Z</time>
      </trkpt>
      <trkpt lat="34.21970613402595" lon="108.83096444370376">
        <ele>404.58087090123445</ele>
        <time>2025-12-22T04:42:23Z</time>
      </trkpt>
      <trkpt lat="34.219717561313516" lon="108.83096015564895">
        <ele>404.6627782676369</ele>
        <time>2025-12-22T04:42:24Z</time>
      </trkpt>
      <trkpt lat="34.2197283090578" lon="108.83095612213582">
        <ele>404.7486677104607</ele>
        <time>2025-12-22T04:42:25Z</time>
      </trkpt>
      <trkpt lat="34.219737536400935" lon="108.83095248079498">
        <ele>404.82806987687945</ele>
        <time>2025-12-22T04:42:26Z</time>
      </trkpt>
      <trkpt lat="34.21974476102257" lon="108.83094866011872">
        <ele>404.8944003423676</ele>
        <time>2025-12-22T04:42:27Z</time>
      </trkpt>
      <trkpt lat="34.219751541672245" lon="108.83094448596039">
        <ele>404.96868555247784</ele>
        <time>2025-12-22T04:42:28Z</time>
      </trkpt>
      <trkpt lat="34.21975927214634" lon="108.83094050418099">
        <ele>405.0375538999215</ele>
        <time>2025-12-22T04:42:29Z</time>
      </trkpt>
      <trkpt lat="34.21976797789353" lon="108.83093721034346">
        <ele>405.1065196879208</ele>
        <time>2025-12-22T04:42:30Z</time>
      </trkpt>
      <trkpt lat="34.21977757817408" lon="108.83093463558903">
        <ele>405.2021360741928</ele>
        <time>2025-12-22T04:42:31Z</time>
      </trkpt>
      <trkpt lat="34.21978793170945" lon="108.83093201196593">
        <ele>405.3195758908987</ele>
        <time>2025-12-22T04:42:32Z</time>
      </trkpt>
      <trkpt lat="34.21979942985038" lon="108.83092941674154">
        <ele>405.45356970932335</ele>
        <time>2025-12-22T04:42:33Z</time>
      </trkpt>
      <trkpt lat="34.21981177703913" lon="108.83092752431504">
        <ele>405.5819018147886</ele>
        <time>2025-12-22T04:42:34Z</time>
      </trkpt>
      <trkpt lat="34.21982410416265" lon="108.83092665862536">
        <ele>405.7147963056341</ele>
        <time>2025-12-22T04:42:35Z</time>
      </trkpt>
      <trkpt lat="34.219835688156685" lon="108.83092557809687">
        <ele>405.82943230494857</ele>
        <time>2025-12-22T04:42:36Z</time>
      </trkpt>
      <trkpt lat="34.21984693446064" lon="108.8309233440152">
        <ele>405.9651927985251</ele>
        <time>2025-12-22T04:42:37Z</time>
      </trkpt>
      <trkpt lat="34.21985831096988" lon="108.8309207480291">
        <ele>406.0830054702237</ele>
        <time>2025-12-22T04:42:38Z</time>
      </trkpt>
      <trkpt lat="34.21987001974962" lon="108.83091856158583">
        <ele>406.18161017727107</ele>
        <time>2025-12-22T04:42:39Z</time>
      </trkpt>
      <trkpt lat="34.21988193714765" lon="108.83091662322127">
        <ele>406.27171594649553</ele>
        <time>2025-12-22T04:42:40Z</time>
      </trkpt>
      <trkpt lat="34.21989482460414" lon="108.83091445059256">
        <ele>406.35111801419407</ele>
        <time>2025-12-22T04:42:41Z</time>
      </trkpt>
      <trkpt lat="34.219907973943336" lon="108.83091258614121">
        <ele>406.39159054122865</ele>
        <time>2025-12-22T04:42:42Z</time>
      </trkpt>
      <trkpt lat="34.21992136981373" lon="108.83090990966227">
        <ele>406.40836797934026</ele>
        <time>2025-12-22T04:42:43Z</time>
      </trkpt>
      <trkpt lat="34.219935597244756" lon="108.83090497545551">
        <ele>406.38087379932404</ele>
        <time>2025-12-22T04:42:44Z</time>
      </trkpt>
      <trkpt lat="34.21995036841886" lon="108.8308989299476">
        <ele>406.3315491322428</ele>
        <time>2025-12-22T04:42:45Z</time>
      </trkpt>
      <trkpt lat="34.21996537447972" lon="108.83089261226108">
        <ele>406.2122801365331</ele>
        <time>2025-12-22T04:42:46Z</time>
      </trkpt>
      <trkpt lat="34.21998040843395" lon="108.83088666508624">
        <ele>406.067870487459</ele>
        <time>2025-12-22T04:42:47Z</time>
      </trkpt>
      <trkpt lat="34.219995544264826" lon="108.8308818387382">
        <ele>405.88100940268487</ele>
        <time>2025-12-22T04:42:48Z</time>
      </trkpt>
      <trkpt lat="34.220009664236805" lon="108.83087856691942">
        <ele>405.6597404628992</ele>
        <time>2025-12-22T04:42:49Z</time>
      </trkpt>
      <trkpt lat="34.22002282053768" lon="108.83087460474857">
        <ele>405.3995346883312</ele>
        <time>2025-12-22T04:42:50Z</time>
      </trkpt>
      <trkpt lat="34.220035654970644" lon="108.83086813016618">
        <ele>405.13965849019587</ele>
        <time>2025-12-22T04:42:51Z</time>
      </trkpt>
      <trkpt lat="34.22004782515082" lon="108.83085850900117">
        <ele>404.8749558450654</ele>
        <time>2025-12-22T04:42:52Z</time>
      </trkpt>
      <trkpt lat="34.220059278426454" lon="108.83084582051104">
        <ele>404.59182805381715</ele>
        <time>2025-12-22T04:42:53Z</time>
      </trkpt>
      <trkpt lat="34.22006951112246" lon="108.83083113175469">
        <ele>404.27633061259985</ele>
        <time>2025-12-22T04:42:54Z</time>
      </trkpt>
      <trkpt lat="34.2200787165428" lon="108.83081463523737">
        <ele>403.9626503046602</ele>
        <time>2025-12-22T04:42:55Z</time>
      </trkpt>
      <trkpt lat="34.22008728884992" lon="108.83079715274911">
        <ele>403.66183249652386</ele>
        <time>2025-12-22T04:42:56Z</time>
      </trkpt>
      <trkpt lat="34.22009429243656" lon="108.83078105843424">
        <ele>403.3608510699123</ele>
        <time>2025-12-22T04:42:57Z</time>
      </trkpt>
      <trkpt lat="34.220098924790435" lon="108.83076842723473">
        <ele>403.0601311586797</ele>
        <time>2025-12-22T04:42:58Z</time>
      </trkpt>
      <trkpt lat="34.22010197170528" lon="108.83075774085434">
        <ele>402.74824007973075</ele>
        <time>2025-12-22T04:42:59Z</time>
      </trkpt>
      <trkpt lat="34.22010444926323" lon="108.83074690756456">
        <ele>402.4376588957384</ele>
        <time>2025-12-22T04:43:00Z</time>
      </trkpt>
      <trkpt lat="34.220106525099396" lon="108.83073579798514">
        <ele>402.1139053571969</ele>
        <time>2025-12-22T04:43:01Z</time>
      </trkpt>
      <trkpt lat="34.22010826253288" lon="108.83072461661867">
        <ele>401.80996305681765</ele>
        <time>2025-12-22T04:43:02Z</time>
      </trkpt>
      <trkpt lat="34.22011000763943" lon="108.83071351096234">
        <ele>401.5122143961489</ele>
        <time>2025-12-22T04:43:03Z</time>
      </trkpt>
      <trkpt lat="34.220111730491666" lon="108.83070200837884">
        <ele>401.2409731829539</ele>
        <time>2025-12-22T04:43:04Z</time>
      </trkpt>
      <trkpt lat="34.2201139040359" lon="108.83068919610231">
        <ele>401.004725552164</ele>
        <time>2025-12-22T04:43:05Z</time>
      </trkpt>
      <trkpt lat="34.22011638795971" lon="108.8306760980756">
        <ele>400.7990638995543</ele>
        <time>2025-12-22T04:43:06Z</time>
      </trkpt>
      <trkpt lat="34.22011880269059" lon="108.83066391328242">
        <ele>400.6319352220744</ele>
        <time>2025-12-22T04:43:07Z</time>
      </trkpt>
      <trkpt lat="34.2201211346295" lon="108.8306526286717">
        <ele>400.498693542555</ele>
        <time>2025-12-22T04:43:08Z</time>
      </trkpt>
      <trkpt lat="34.22012360058593" lon="108.83064144217101">
        <ele>400.40260592196137</ele>
        <time>2025-12-22T04:43:09Z</time>
      </trkpt>
      <trkpt lat="34.22012620957614" lon="108.83063056537164">
        <ele>400.3548669880256</ele>
        <time>2025-12-22T04:43:10Z</time>
      </trkpt>
      <trkpt lat="34.22012841175834" lon="108.83062118239766">
        <ele>400.384422654286</ele>
        <time>2025-12-22T04:43:11Z</time>
      </trkpt>
      <trkpt lat="34.220129717201075" lon="108.83061289307301">
        <ele>400.51293161697686</ele>
        <time>2025-12-22T04:43:12Z</time>
      </trkpt>
      <trkpt lat="34.22013077639821" lon="108.8306055597335">
        <ele>400.68523640558124</ele>
        <time>2025-12-22T04:43:13Z</time>
      </trkpt>
      <trkpt lat="34.220132043558166" lon="108.8305996603274">
        <ele>400.9299145154655</ele>
        <time>2025-12-22T04:43:14Z</time>
      </trkpt>
      <trkpt lat="34.22013345624665" lon="108.83059382240731">
        <ele>401.19610317610204</ele>
        <time>2025-12-22T04:43:15Z</time>
      </trkpt>
      <trkpt lat="34.22013482127255" lon="108.83058786586075">
        <ele>401.441553668119</ele>
        <time>2025-12-22T04:43:16Z</time>
      </trkpt>
      <trkpt lat="34.22013609447262" lon="108.8305818201369">
        <ele>401.68751303851604</ele>
        <time>2025-12-22T04:43:17Z</time>
      </trkpt>
      <trkpt lat="34.220137322535415" lon="108.83057591496413">
        <ele>401.9169448148459</ele>
        <time>2025-12-22T04:43:18Z</time>
      </trkpt>
      <trkpt lat="34.22013794409812" lon="108.83057041855771">
        <ele>402.1540319118649</ele>
        <time>2025-12-22T04:43:19Z</time>
      </trkpt>
      <trkpt lat="34.220137668595555" lon="108.8305654641562">
        <ele>402.3881101142615</ele>
        <time>2025-12-22T04:43:20Z</time>
      </trkpt>
      <trkpt lat="34.22013566344507" lon="108.8305612976227">
        <ele>402.6141434777528</ele>
        <time>2025-12-22T04:43:21Z</time>
      </trkpt>
      <trkpt lat="34.22013183542637" lon="108.83055700654964">
        <ele>402.83478852454573</ele>
        <time>2025-12-22T04:43:22Z</time>
      </trkpt>
      <trkpt lat="34.2201275055477" lon="108.8305512929048">
        <ele>403.0463945120573</ele>
        <time>2025-12-22T04:43:22.900000Z</time>
      </trkpt>
      <trkpt lat="34.220124258349216" lon="108.83054349367323">
        <ele>403.254733604379</ele>
        <time>2025-12-22T04:43:23.900000Z</time>
      </trkpt>
      <trkpt lat="34.2201223528432" lon="108.83053421921105">
        <ele>403.455710218288</ele>
        <time>2025-12-22T04:43:24.900000Z</time>
      </trkpt>
      <trkpt lat="34.22012121132116" lon="108.83052364531794">
        <ele>403.64131224155426</ele>
        <time>2025-12-22T04:43:25.900000Z</time>
      </trkpt>
      <trkpt lat="34.22012062188379" lon="108.83051197878605">
        <ele>403.81526165269315</ele>
        <time>2025-12-22T04:43:26.900000Z</time>
      </trkpt>
      <trkpt lat="34.22012112735366" lon="108.83050028130798">
        <ele>403.9761334937066</ele>
        <time>2025-12-22T04:43:27.900000Z</time>
      </trkpt>
      <trkpt lat="34.220122783309094" lon="108.83048939539961">
        <ele>404.12843857426196</ele>
        <time>2025-12-22T04:43:28.900000Z</time>
      </trkpt>
      <trkpt lat="34.220125596676624" lon="108.83047978272292">
        <ele>404.2729160198942</ele>
        <time>2025-12-22T04:43:29.900000Z</time>
      </trkpt>
      <trkpt lat="34.220129628953316" lon="108.83047117474504">
        <ele>404.402645339258</ele>
        <time>2025-12-22T04:43:30.900000Z</time>
      </trkpt>
      <trkpt lat="34.22013450479419" lon="108.83046293174013">
        <ele>404.5234095463529</ele>
        <time>2025-12-22T04:43:31.900000Z</time>
      </trkpt>
      <trkpt lat="34.22013995643761" lon="108.83045476218213">
        <ele>404.63330603577197</ele>
        <time>2025-12-22T04:43:32.900000Z</time>
      </trkpt>
      <trkpt lat="34.22014552459792" lon="108.83044566702553">
        <ele>404.745265272446</ele>
        <time>2025-12-22T04:43:33.900000Z</time>
      </trkpt>
      <trkpt lat="34.22015054581163" lon="108.83043647657831">
        <ele>404.83071437384933</ele>
        <time>2025-12-22T04:43:34.900000Z</time>
      </trkpt>
      <trkpt lat="34.2201556422617" lon="108.83042712185517">
        <ele>404.9074825812131</ele>
        <time>2025-12-22T04:43:35.900000Z</time>
      </trkpt>
      <trkpt lat="34.22016138486992" lon="108.83041864706729">
        <ele>404.97530795261264</ele>
        <time>2025-12-22T04:43:36.900000Z</time>
      </trkpt>
      <trkpt lat="34.2201671833997" lon="108.83041070316979">
        <ele>405.0472665959969</ele>
        <time>2025-12-22T04:43:37.900000Z</time>
      </trkpt>
      <trkpt lat="34.22017276954683" lon="108.83040349626023">
        <ele>405.10749713983387</ele>
        <time>2025-12-22T04:43:38.900000Z</time>
      </trkpt>
      <trkpt lat="34.22017805121589" lon="108.83039706473694">
        <ele>405.16020117513835</ele>
        <time>2025-12-22T04:43:39.900000Z</time>
      </trkpt>
      <trkpt lat="34.22018284078974" lon="108.83039124931283">
        <ele>405.20597588457167</ele>
        <time>2025-12-22T04:43:40.900000Z</time>
      </trkpt>
      <trkpt lat="34.22018749622156" lon="108.83038536381777">
        <ele>405.2444164250046</ele>
        <time>2025-12-22T04:43:41.900000Z</time>
      </trkpt>
      <trkpt lat="34.220192073919904" lon="108.8303793742672">
        <ele>405.2764127952978</ele>
        <time>2025-12-22T04:43:42.900000Z</time>
      </trkpt>
      <trkpt lat="34.22019621157884" lon="108.83037370969332">
        <ele>405.30664015188813</ele>
        <time>2025-12-22T04:43:43.900000Z</time>
      </trkpt>
      <trkpt lat="34.22019992002467" lon="108.83036875872914">
        <ele>405.3296277653426</ele>
        <time>2025-12-22T04:43:44.900000Z</time>
      </trkpt>
      <trkpt lat="34.22020296639986" lon="108.83036515879161">
        <ele>405.34803984779865</ele>
        <time>2025-12-22T04:43:45.900000Z</time>
      </trkpt>
      <trkpt lat="34.22020556070287" lon="108.83036248453784">
        <ele>405.36251328885555</ele>
        <time>2025-12-22T04:43:46.900000Z</time>
      </trkpt>
      <trkpt lat="34.22020812803951" lon="108.83036001921579">
        <ele>405.3736283732578</ele>
        <time>2025-12-22T04:43:47.900000Z</time>
      </trkpt>
      <trkpt lat="34.22021063433543" lon="108.83035778205968">
        <ele>405.3819205723703</ele>
        <time>2025-12-22T04:43:48.900000Z</time>
      </trkpt>
      <trkpt lat="34.22021296744496" lon="108.83035574490344">
        <ele>405.38795314356685</ele>
        <time>2025-12-22T04:43:49.900000Z</time>
      </trkpt>
      <trkpt lat="34.22021504477576" lon="108.83035388273703">
        <ele>405.3922893013805</ele>
        <time>2025-12-22T04:43:50.900000Z</time>
      </trkpt>
      <trkpt lat="34.22021689022153" lon="108.83035218325419">
        <ele>405.39541894663125</ele>
        <time>2025-12-22T04:43:51.900000Z</time>
      </trkpt>
      <trkpt lat="34.220218740363826" lon="108.83035049204221">
        <ele>405.3978632418439</ele>
        <time>2025-12-22T04:43:53Z</time>
      </trkpt>
      <trkpt lat="34.22022797131302" lon="108.83034292933421">
        <ele>405.31964154727757</ele>
        <time>2025-12-22T04:44:03Z</time>
      </trkpt>
      <trkpt lat="34.22129821631783" lon="108.82849524388998">
        <ele>405.68274084012955</ele>
        <time>2025-12-22T04:45:02Z</time>
      </trkpt>
      <trkpt lat="34.221299826848075" lon="108.82848654627193">
        <ele>405.6875464916229</ele>
        <time>2025-12-22T04:45:03Z</time>
      </trkpt>
      <trkpt lat="34.221301258615156" lon="108.82847878218321">
        <ele>405.69165307842195</ele>
        <time>2025-12-22T04:45:04Z</time>
      </trkpt>
      <trkpt lat="34.221302550732034" lon="108.8284717474714">
        <ele>405.69509032089263</ele>
        <time>2025-12-22T04:45:05Z</time>
      </trkpt>
      <trkpt lat="34.221303702916344" lon="108.8284654667166">
        <ele>405.69794547371566</ele>
        <time>2025-12-22T04:45:06Z</time>
      </trkpt>
      <trkpt lat="34.221304553996326" lon="108.8284608252041">
        <ele>405.7003590557724</ele>
        <time>2025-12-22T04:45:07Z</time>
      </trkpt>
      <trkpt lat="34.22130543275464" lon="108.82845603094334">
        <ele>405.70249569416046</ele>
        <time>2025-12-22T04:45:08Z</time>
      </trkpt>
      <trkpt lat="34.22130625034266" lon="108.82845156965317">
        <ele>405.70439287181944</ele>
        <time>2025-12-22T04:45:09Z</time>
      </trkpt>
      <trkpt lat="34.22130696754014" lon="108.82844765581024">
        <ele>405.7060780143365</ele>
        <time>2025-12-22T04:45:10Z</time>
      </trkpt>
      <trkpt lat="34.221307580441334" lon="108.82844431096424">
        <ele>405.7075950698927</ele>
        <time>2025-12-22T04:45:11Z</time>
      </trkpt>
      <trkpt lat="34.221308086671286" lon="108.82844154818997">
        <ele>405.70897100679576</ele>
        <time>2025-12-22T04:45:12Z</time>
      </trkpt>
      <trkpt lat="34.22130849956705" lon="108.82843929475654">
        <ele>405.7102467836812</ele>
        <time>2025-12-22T04:45:13Z</time>
      </trkpt>
      <trkpt lat="34.22130882086379" lon="108.82843754122165">
        <ele>405.71144950482994</ele>
        <time>2025-12-22T04:45:14Z</time>
      </trkpt>
      <trkpt lat="34.221309053694974" lon="108.82843627049736">
        <ele>405.7126070773229</ele>
        <time>2025-12-22T04:45:15Z</time>
      </trkpt>
      <trkpt lat="34.22130921500248" lon="108.82843539012623">
        <ele>405.71374604757875</ele>
        <time>2025-12-22T04:45:16Z</time>
      </trkpt>
    </trkseg>
  </trk>
</gpx>