<?xml version="1.0" encoding="UTF-8"?>
<gpx xmlns="http://www.topografix.com/GPX/1/1" xmlns:gpxtpx="http://www.garmin.com/xmlschemas/TrackPointExtension/v1" xmlns:xsi="http://www.w3.org/2001/XMLSchema-instance" xsi:schemaLocation="http://www.topografix.com/GPX/1/1 http://www.topografix.com/GPX/1/1/gpx.xsd" version="1.1" creator="gpx.py -- https://github.com/tkrajina/gpxpy">
  <trk>
    <name>gpx from keep</name>
    <type>Walk</type>
    <trkseg>
      <trkpt lat="34.219073250232995" lon="108.87923007083185">
        <ele>416.98494502156973</ele>
        <time>2025-12-10T11:50:42Z</time>
      </trkpt>
      <trkpt lat="34.219073250232995" lon="108.87923007083185">
        <ele>416.98494502156973</ele>
        <time>2025-12-10T11:50:43.900000Z</time>
      </trkpt>
      <trkpt lat="34.219073250232995" lon="108.87923007083185">
        <ele>416.98494502156973</ele>
        <time>2025-12-10T11:50:44.900000Z</time>
      </trkpt>
      <trkpt lat="34.219073250232995" lon="108.87923007083185">
        <ele>416.98494502156973</ele>
        <time>2025-12-10T11:50:45.900000Z</time>
      </trkpt>
      <trkpt lat="34.219073250232995" lon="108.87923007083185">
        <ele>416.98494502156973</ele>
        <time>2025-12-10T11:50:46.900000Z</time>
      </trkpt>
      <trkpt lat="34.219073250232995" lon="108.87923007083185">
        <ele>416.98494502156973</ele>
        <time>2025-12-10T11:50:47.900000Z</time>
      </trkpt>
    </trkseg>
  </trk>
</gpx>